<?xml version="1.0" encoding="UTF-8"?>
<kml xmlns="http://www.opengis.net/kml/2.2" xmlns:gx="http://www.google.com/kml/ext/2.2" xmlns:kml="http://www.opengis.net/kml/2.2" xmlns:atom="http://www.w3.org/2005/Atom">
<Document>
	<name>airports.kml</name>
	<Style id="waypoint_h">
		<IconStyle>
			<scale>1.2</scale>
			<Icon>
				<href>http://maps.google.com/mapfiles/kml/pal4/icon61.png</href>
			</Icon>
		</IconStyle>
	</Style>
	<Style id="sh_icon61">
		<IconStyle>
			<scale>1.2</scale>
			<Icon>
				<href>http://maps.google.com/mapfiles/kml/pal4/icon61.png</href>
			</Icon>
		</IconStyle>
		<BalloonStyle>
		</BalloonStyle>
	</Style>
	<Style id="waypoint_n">
		<IconStyle>
			<Icon>
				<href>http://maps.google.com/mapfiles/kml/pal4/icon61.png</href>
			</Icon>
		</IconStyle>
	</Style>
	<StyleMap id="msn_icon61">
		<Pair>
			<key>normal</key>
			<styleUrl>#sn_icon61</styleUrl>
		</Pair>
		<Pair>
			<key>highlight</key>
			<styleUrl>#sh_icon61</styleUrl>
		</Pair>
	</StyleMap>
	<Style id="sn_icon61">
		<IconStyle>
			<Icon>
				<href>http://maps.google.com/mapfiles/kml/pal4/icon61.png</href>
			</Icon>
		</IconStyle>
		<BalloonStyle>
		</BalloonStyle>
	</Style>
	<StyleMap id="waypoint">
		<Pair>
			<key>normal</key>
			<styleUrl>#waypoint_n</styleUrl>
		</Pair>
		<Pair>
			<key>highlight</key>
			<styleUrl>#waypoint_h</styleUrl>
		</Pair>
	</StyleMap>
	<Folder>
		<name>Airports</name>
		<visibility>0</visibility>
		<Placemark>
			<name>LLHB</name>
			<visibility>0</visibility>
			<styleUrl>#msn_icon61</styleUrl>
			<Point>
				<coordinates>34.656604,31.242614,0</coordinates>
			</Point>
		</Placemark>
		<Placemark>
			<name>LLBG</name>
			<visibility>0</visibility>
			<styleUrl>#waypoint</styleUrl>
			<Point>
				<coordinates>34.886149,32.010515,0</coordinates>
			</Point>
		</Placemark>
		<Placemark>
			<name>LLHA</name>
			<visibility>0</visibility>
			<styleUrl>#waypoint</styleUrl>
			<Point>
				<coordinates>35.042711,32.809975,0</coordinates>
			</Point>
		</Placemark>
		<Placemark>
			<name>LLHZ</name>
			<visibility>0</visibility>
			<styleUrl>#waypoint</styleUrl>
			<Point>
				<coordinates>34.832741,32.180426,0</coordinates>
			</Point>
		</Placemark>
		<Placemark>
			<name>LLHS</name>
			<visibility>0</visibility>
			<styleUrl>#waypoint</styleUrl>
			<Point>
				<coordinates>34.722327,31.758165,0</coordinates>
			</Point>
		</Placemark>
		<Placemark>
			<name>LLYO</name>
			<visibility>0</visibility>
			<styleUrl>#waypoint</styleUrl>
			<Point>
				<coordinates>35.065912,29.89869600000001,0</coordinates>
			</Point>
		</Placemark>
		<Placemark>
			<name>LLMZ</name>
			<visibility>0</visibility>
			<styleUrl>#waypoint</styleUrl>
			<Point>
				<coordinates>35.387732,31.326253,0</coordinates>
			</Point>
		</Placemark>
		<Placemark>
			<name>LLNV</name>
			<visibility>0</visibility>
			<styleUrl>#waypoint</styleUrl>
			<Point>
				<coordinates>35.019446,31.213235,0</coordinates>
			</Point>
		</Placemark>
		<Placemark>
			<name>LLMG</name>
			<visibility>0</visibility>
			<styleUrl>#waypoint</styleUrl>
			<Point>
				<coordinates>35.228832,32.59822,0</coordinates>
			</Point>
		</Placemark>
		<Placemark>
			<name>LLBS</name>
			<visibility>0</visibility>
			<styleUrl>#waypoint</styleUrl>
			<Point>
				<coordinates>34.722299,31.286313,0</coordinates>
			</Point>
		</Placemark>
		<Placemark>
			<name>LLKZ</name>
			<visibility>0</visibility>
			<styleUrl>#waypoint</styleUrl>
			<Point>
				<coordinates>34.443367,30.85908,0</coordinates>
			</Point>
		</Placemark>
		<Placemark>
			<name>LLKS</name>
			<visibility>0</visibility>
			<styleUrl>#waypoint</styleUrl>
			<Point>
				<coordinates>35.595175,33.215377,0</coordinates>
			</Point>
		</Placemark>
		<Placemark>
			<name>LLIB</name>
			<visibility>0</visibility>
			<styleUrl>#waypoint</styleUrl>
			<Point>
				<coordinates>35.570512,32.979367,0</coordinates>
			</Point>
		</Placemark>
		<Placemark>
			<name>LLFK</name>
			<visibility>0</visibility>
			<styleUrl>#waypoint</styleUrl>
			<Point>
				<coordinates>35.71774,32.78646,0</coordinates>
			</Point>
		</Placemark>
		<Placemark>
			<name>LLOV</name>
			<visibility>0</visibility>
			<styleUrl>#waypoint</styleUrl>
			<Point>
				<coordinates>34.935358,29.940943,0</coordinates>
			</Point>
		</Placemark>
		<Placemark>
			<name>LLEY</name>
			<visibility>0</visibility>
			<styleUrl>#waypoint</styleUrl>
			<Point>
				<coordinates>35.203444,30.621606,0</coordinates>
			</Point>
		</Placemark>
		<Placemark>
			<name>LLES</name>
			<visibility>0</visibility>
			<styleUrl>#waypoint</styleUrl>
			<Point>
				<coordinates>35.005892,32.440488,0</coordinates>
			</Point>
		</Placemark>
		<Placemark>
			<name>LLAR</name>
			<visibility>0</visibility>
			<styleUrl>#waypoint</styleUrl>
			<Point>
				<coordinates>35.18983,31.229016,0</coordinates>
			</Point>
		</Placemark>
		<Placemark>
			<name>LLPL</name>
			<visibility>0</visibility>
			<styleUrl>#waypoint</styleUrl>
			<Point>
				<coordinates>34.688795,31.898779,0</coordinates>
			</Point>
		</Placemark>
		<Placemark>
			<name>LLRD</name>
			<visibility>0</visibility>
			<styleUrl>#waypoint</styleUrl>
			<Point>
				<coordinates>35.182994,32.66632,0</coordinates>
			</Point>
		</Placemark>
		<Placemark>
			<name>LLEK</name>
			<visibility>0</visibility>
			<styleUrl>#waypoint</styleUrl>
			<Point>
				<coordinates>34.817047,31.836783,0</coordinates>
			</Point>
		</Placemark>
	</Folder>
</Document>
</kml>
