<?xml version="1.0" encoding="UTF-8"?>
<kml xmlns="http://www.opengis.net/kml/2.2" xmlns:gx="http://www.google.com/kml/ext/2.2" xmlns:kml="http://www.opengis.net/kml/2.2" xmlns:atom="http://www.w3.org/2005/Atom">
<Document>
	<name>ifr_waypoints.kml</name>
	<Style id="waypoint_n">
		<IconStyle>
			<Icon>
				<href>http://maps.google.com/mapfiles/kml/pal4/icon61.png</href>
			</Icon>
		</IconStyle>
	</Style>
	<Style id="waypoint_h">
		<IconStyle>
			<scale>1.2</scale>
			<Icon>
				<href>http://maps.google.com/mapfiles/kml/pal4/icon61.png</href>
			</Icon>
		</IconStyle>
	</Style>
	<StyleMap id="waypoint">
		<Pair>
			<key>normal</key>
			<styleUrl>#waypoint_n</styleUrl>
		</Pair>
		<Pair>
			<key>highlight</key>
			<styleUrl>#waypoint_h</styleUrl>
		</Pair>
	</StyleMap>
	<Folder>
		<name>IFR waypoints</name>
		<visibility>0</visibility>
		<Placemark>
			<name>DESHE</name>
			<visibility>0</visibility>
			<styleUrl>#waypoint</styleUrl>
			<Point>
				<coordinates>35.541813,32.849815,0</coordinates>
			</Point>
		</Placemark>
		<Placemark>
			<name>GALIM</name>
			<visibility>0</visibility>
			<styleUrl>#waypoint</styleUrl>
			<Point>
				<coordinates>34.96456,32.831514,0</coordinates>
			</Point>
		</Placemark>
		<Placemark>
			<name>ZAHAV</name>
			<visibility>0</visibility>
			<styleUrl>#waypoint</styleUrl>
			<Point>
				<coordinates>34.811005,32.814543,0</coordinates>
			</Point>
		</Placemark>
		<Placemark>
			<name>ATLIT</name>
			<visibility>0</visibility>
			<styleUrl>#waypoint</styleUrl>
			<Point>
				<coordinates>34.911676,32.697257,0</coordinates>
			</Point>
		</Placemark>
		<Placemark>
			<name>RAPIV</name>
			<visibility>0</visibility>
			<styleUrl>#waypoint</styleUrl>
			<Point>
				<coordinates>34.929051,32.587012,0</coordinates>
			</Point>
		</Placemark>
		<Placemark>
			<name>MEGID</name>
			<visibility>0</visibility>
			<styleUrl>#waypoint</styleUrl>
			<Point>
				<coordinates>35.244103,32.586301,0</coordinates>
			</Point>
		</Placemark>
		<Placemark>
			<name>LITVA</name>
			<visibility>0</visibility>
			<styleUrl>#waypoint</styleUrl>
			<Point>
				<coordinates>35.054976,32.412201,0</coordinates>
			</Point>
		</Placemark>
		<Placemark>
			<name>PIDET</name>
			<visibility>0</visibility>
			<styleUrl>#waypoint</styleUrl>
			<Point>
				<coordinates>34.782983,32.528016,0</coordinates>
			</Point>
		</Placemark>
		<Placemark>
			<name>MERVA</name>
			<visibility>0</visibility>
			<styleUrl>#waypoint</styleUrl>
			<Point>
				<coordinates>34.542812,32.780991,0</coordinates>
			</Point>
		</Placemark>
		<Placemark>
			<name>TIROS</name>
			<visibility>0</visibility>
			<styleUrl>#waypoint</styleUrl>
			<Point>
				<coordinates>34.315319,33.298321,0</coordinates>
			</Point>
		</Placemark>
		<Placemark>
			<name>PIKOG</name>
			<visibility>0</visibility>
			<styleUrl>#waypoint</styleUrl>
			<Point>
				<coordinates>33.626393,32.841452,0</coordinates>
			</Point>
		</Placemark>
		<Placemark>
			<name>SOLIN</name>
			<visibility>0</visibility>
			<styleUrl>#waypoint</styleUrl>
			<Point>
				<coordinates>34.169406,32.495101,0</coordinates>
			</Point>
		</Placemark>
		<Placemark>
			<name>GITLA</name>
			<visibility>0</visibility>
			<styleUrl>#waypoint</styleUrl>
			<Point>
				<coordinates>34.054753,32.335862,0</coordinates>
			</Point>
		</Placemark>
		<Placemark>
			<name>SUVAS</name>
			<visibility>0</visibility>
			<styleUrl>#waypoint</styleUrl>
			<Point>
				<coordinates>33.991608,32.170421,0</coordinates>
			</Point>
		</Placemark>
		<Placemark>
			<name>PURLA</name>
			<visibility>0</visibility>
			<styleUrl>#waypoint</styleUrl>
			<Point>
				<coordinates>34.227976,32.048371,0</coordinates>
			</Point>
		</Placemark>
		<Placemark>
			<name>RIMON</name>
			<visibility>0</visibility>
			<styleUrl>#waypoint</styleUrl>
			<Point>
				<coordinates>34.455563,32.232647,0</coordinates>
			</Point>
		</Placemark>
		<Placemark>
			<name>PEPIR</name>
			<visibility>0</visibility>
			<styleUrl>#waypoint</styleUrl>
			<Point>
				<coordinates>34.75711,32.377793,0</coordinates>
			</Point>
		</Placemark>
		<Placemark>
			<name>DIVLA</name>
			<visibility>0</visibility>
			<styleUrl>#waypoint</styleUrl>
			<Point>
				<coordinates>34.714891,32.283388,0</coordinates>
			</Point>
		</Placemark>
		<Placemark>
			<name>YAMIT</name>
			<visibility>0</visibility>
			<styleUrl>#waypoint</styleUrl>
			<Point>
				<coordinates>34.714272,32.231868,0</coordinates>
			</Point>
		</Placemark>
		<Placemark>
			<name>KANER</name>
			<visibility>0</visibility>
			<styleUrl>#waypoint</styleUrl>
			<Point>
				<coordinates>34.927272,32.207464,0</coordinates>
			</Point>
		</Placemark>
		<Placemark>
			<name>MESIL</name>
			<visibility>0</visibility>
			<styleUrl>#waypoint</styleUrl>
			<Point>
				<coordinates>34.898537,32.108723,0</coordinates>
			</Point>
		</Placemark>
		<Placemark>
			<name>GODED</name>
			<visibility>0</visibility>
			<styleUrl>#waypoint</styleUrl>
			<Point>
				<coordinates>34.571695,32.164076,0</coordinates>
			</Point>
		</Placemark>
		<Placemark>
			<name>ORLEV</name>
			<visibility>0</visibility>
			<styleUrl>#waypoint</styleUrl>
			<Point>
				<coordinates>34.634516,32.025621,0</coordinates>
			</Point>
		</Placemark>
		<Placemark>
			<name>TAPUZ</name>
			<visibility>0</visibility>
			<styleUrl>#waypoint</styleUrl>
			<Point>
				<coordinates>34.522436,32.03118,0</coordinates>
			</Point>
		</Placemark>
		<Placemark>
			<name>RENVO</name>
			<visibility>0</visibility>
			<styleUrl>#waypoint</styleUrl>
			<Point>
				<coordinates>34.125066,31.935602,0</coordinates>
			</Point>
		</Placemark>
		<Placemark>
			<name>ADLOD</name>
			<visibility>0</visibility>
			<styleUrl>#waypoint</styleUrl>
			<Point>
				<coordinates>35.250069,32.007038,0</coordinates>
			</Point>
		</Placemark>
		<Placemark>
			<name>SALAM</name>
			<visibility>0</visibility>
			<styleUrl>#waypoint</styleUrl>
			<Point>
				<coordinates>35.512986,31.931151,0</coordinates>
			</Point>
		</Placemark>
		<Placemark>
			<name>TALMI</name>
			<visibility>0</visibility>
			<styleUrl>#waypoint</styleUrl>
			<Point>
				<coordinates>35.501507,31.824503,0</coordinates>
			</Point>
		</Placemark>
		<Placemark>
			<name>GOBRI</name>
			<visibility>0</visibility>
			<styleUrl>#waypoint</styleUrl>
			<Point>
				<coordinates>35.378265,31.861709,0</coordinates>
			</Point>
		</Placemark>
		<Placemark>
			<name>ABIMI</name>
			<visibility>0</visibility>
			<styleUrl>#waypoint</styleUrl>
			<Point>
				<coordinates>35.239713,31.901785,0</coordinates>
			</Point>
		</Placemark>
		<Placemark>
			<name>BIRIM</name>
			<visibility>0</visibility>
			<styleUrl>#waypoint</styleUrl>
			<Point>
				<coordinates>34.966146,31.859745,0</coordinates>
			</Point>
		</Placemark>
		<Placemark>
			<name>BEXOM</name>
			<visibility>0</visibility>
			<styleUrl>#waypoint</styleUrl>
			<Point>
				<coordinates>35.010364,31.788603,0</coordinates>
			</Point>
		</Placemark>
		<Placemark>
			<name>ESTER</name>
			<visibility>0</visibility>
			<styleUrl>#waypoint</styleUrl>
			<Point>
				<coordinates>35.227621,31.741361,0</coordinates>
			</Point>
		</Placemark>
		<Placemark>
			<name>TOMAL</name>
			<visibility>0</visibility>
			<styleUrl>#waypoint</styleUrl>
			<Point>
				<coordinates>35.483339,31.740361,0</coordinates>
			</Point>
		</Placemark>
		<Placemark>
			<name>SIVAK</name>
			<visibility>0</visibility>
			<styleUrl>#waypoint</styleUrl>
			<Point>
				<coordinates>35.474721,31.70627,0</coordinates>
			</Point>
		</Placemark>
		<Placemark>
			<name>AMMIT</name>
			<visibility>0</visibility>
			<styleUrl>#waypoint</styleUrl>
			<Point>
				<coordinates>35.454049,31.619953,0</coordinates>
			</Point>
		</Placemark>
		<Placemark>
			<name>NEOMI</name>
			<visibility>0</visibility>
			<styleUrl>#waypoint</styleUrl>
			<Point>
				<coordinates>35.289336,31.580909,0</coordinates>
			</Point>
		</Placemark>
		<Placemark>
			<name>BOFIR</name>
			<visibility>0</visibility>
			<styleUrl>#waypoint</styleUrl>
			<Point>
				<coordinates>34.883679,31.569286,0</coordinates>
			</Point>
		</Placemark>
		<Placemark>
			<name>RAHAT</name>
			<visibility>0</visibility>
			<styleUrl>#waypoint</styleUrl>
			<Point>
				<coordinates>34.782808,31.397859,0</coordinates>
			</Point>
		</Placemark>
		<Placemark>
			<name>SOKET</name>
			<visibility>0</visibility>
			<styleUrl>#waypoint</styleUrl>
			<Point>
				<coordinates>34.899501,31.303567,0</coordinates>
			</Point>
		</Placemark>
		<Placemark>
			<name>MIRTA</name>
			<visibility>0</visibility>
			<styleUrl>#waypoint</styleUrl>
			<Point>
				<coordinates>35.08351,31.317455,0</coordinates>
			</Point>
		</Placemark>
		<Placemark>
			<name>OBAKO</name>
			<visibility>0</visibility>
			<styleUrl>#waypoint</styleUrl>
			<Point>
				<coordinates>35.311383,31.062861,0</coordinates>
			</Point>
		</Placemark>
		<Placemark>
			<name>SUKOT</name>
			<visibility>0</visibility>
			<styleUrl>#waypoint</styleUrl>
			<Point>
				<coordinates>35.360356,31.062162,0</coordinates>
			</Point>
		</Placemark>
		<Placemark>
			<name>KINAR</name>
			<visibility>0</visibility>
			<styleUrl>#waypoint</styleUrl>
			<Point>
				<coordinates>35.347488,30.940337,0</coordinates>
			</Point>
		</Placemark>
		<Placemark>
			<name>BOGER</name>
			<visibility>0</visibility>
			<styleUrl>#waypoint</styleUrl>
			<Point>
				<coordinates>34.88019,30.931889,0</coordinates>
			</Point>
		</Placemark>
		<Placemark>
			<name>GEVES</name>
			<visibility>0</visibility>
			<styleUrl>#waypoint</styleUrl>
			<Point>
				<coordinates>34.986127,30.445274,0</coordinates>
			</Point>
		</Placemark>
		<Placemark>
			<name>SHAYO</name>
			<visibility>0</visibility>
			<styleUrl>#waypoint</styleUrl>
			<Point>
				<coordinates>35.115284,30.32599400000001,0</coordinates>
			</Point>
		</Placemark>
		<Placemark>
			<name>SHANI</name>
			<visibility>0</visibility>
			<styleUrl>#waypoint</styleUrl>
			<Point>
				<coordinates>35.095305,30.222336,0</coordinates>
			</Point>
		</Placemark>
		<Placemark>
			<name>NURIT</name>
			<visibility>0</visibility>
			<styleUrl>#waypoint</styleUrl>
			<Point>
				<coordinates>35.062087,30.06578,0</coordinates>
			</Point>
		</Placemark>
		<Placemark>
			<name>RASAF</name>
			<visibility>0</visibility>
			<styleUrl>#waypoint</styleUrl>
			<Point>
				<coordinates>35.029035,29.888993,0</coordinates>
			</Point>
		</Placemark>
		<Placemark>
			<name>SAMAR</name>
			<visibility>0</visibility>
			<styleUrl>#waypoint</styleUrl>
			<Point>
				<coordinates>35.015854,29.818005,0</coordinates>
			</Point>
		</Placemark>
		<Placemark>
			<name>NALSO</name>
			<visibility>0</visibility>
			<styleUrl>#waypoint</styleUrl>
			<Point>
				<coordinates>34.879451,29.530836,0</coordinates>
			</Point>
		</Placemark>
	</Folder>
</Document>
</kml>
