<?xml version="1.0" encoding="UTF-8"?>
<kml xmlns="http://www.opengis.net/kml/2.2" xmlns:gx="http://www.google.com/kml/ext/2.2" xmlns:kml="http://www.opengis.net/kml/2.2" xmlns:atom="http://www.w3.org/2005/Atom">
<Document>
	<name>navaids.kml</name>
	<StyleMap id="m_ylw-pushpin">
		<Pair>
			<key>normal</key>
			<styleUrl>#s_ylw-pushpin</styleUrl>
		</Pair>
		<Pair>
			<key>highlight</key>
			<styleUrl>#s_ylw-pushpin_hl</styleUrl>
		</Pair>
	</StyleMap>
	<Style id="s_ylw-pushpin_hl">
		<IconStyle>
			<scale>1.3</scale>
			<Icon>
				<href>http://maps.google.com/mapfiles/kml/pushpin/ylw-pushpin.png</href>
			</Icon>
			<hotSpot x="20" y="2" xunits="pixels" yunits="pixels"/>
		</IconStyle>
	</Style>
	<StyleMap id="waypoint">
		<Pair>
			<key>normal</key>
			<styleUrl>#waypoint_n</styleUrl>
		</Pair>
		<Pair>
			<key>highlight</key>
			<styleUrl>#waypoint_h</styleUrl>
		</Pair>
	</StyleMap>
	<Style id="waypoint_h">
		<IconStyle>
			<scale>1.2</scale>
			<Icon>
				<href>http://maps.google.com/mapfiles/kml/pal4/icon61.png</href>
			</Icon>
		</IconStyle>
	</Style>
	<Style id="s_ylw-pushpin">
		<IconStyle>
			<scale>1.1</scale>
			<Icon>
				<href>http://maps.google.com/mapfiles/kml/pushpin/ylw-pushpin.png</href>
			</Icon>
			<hotSpot x="20" y="2" xunits="pixels" yunits="pixels"/>
		</IconStyle>
	</Style>
	<Style id="waypoint_n">
		<IconStyle>
			<Icon>
				<href>http://maps.google.com/mapfiles/kml/pal4/icon61.png</href>
			</Icon>
		</IconStyle>
	</Style>
	<Folder>
		<name>Navaids</name>
		<open>1</open>
		<Placemark>
			<name>ROP</name>
			<visibility>0</visibility>
			<styleUrl>#waypoint</styleUrl>
			<Point>
				<coordinates>35.57083,32.978862,0</coordinates>
			</Point>
		</Placemark>
		
		<Placemark>
			<name>NAT</name>
			<visibility>0</visibility>
			<styleUrl>#waypoint</styleUrl>
			<Point>
				<coordinates>34.967123,32.330881,0</coordinates>
			</Point>
		</Placemark>
		<Placemark>
			<name>BGN</name>
			<visibility>0</visibility>
			<styleUrl>#waypoint</styleUrl>
			<Point>
				<coordinates>34.872417,32.009976,0</coordinates>
			</Point>
		</Placemark>
		<Placemark>
			<name>MZD</name>
			<visibility>0</visibility>
			<styleUrl>#waypoint</styleUrl>
			<Point>
				<coordinates>35.389655,31.326898,0</coordinates>
			</Point>
		</Placemark>
		<Placemark>
			<name>BSA</name>
			<visibility>0</visibility>
			<styleUrl>#waypoint</styleUrl>
			<Point>
				<coordinates>34.719172,31.283082,0</coordinates>
			</Point>
		</Placemark>
		<Placemark>
			<name>RMN</name>
			<visibility>0</visibility>
			<styleUrl>#waypoint</styleUrl>
			<Point>
				<coordinates>34.686047,30.782138,0</coordinates>
			</Point>
		</Placemark>
		<Placemark>
			<name>ZFR</name>
			<visibility>0</visibility>
			<styleUrl>#waypoint</styleUrl>
			<Point>
				<coordinates>35.157898,30.55583,0</coordinates>
			</Point>
		</Placemark>
		<Placemark>
			<name>RAM</name>
			<visibility>0</visibility>
			<styleUrl>#waypoint</styleUrl>
			<Point>
				<coordinates>35.016847,29.750709,0</coordinates>
			</Point>
		</Placemark>
		<Placemark>
			<name>LOT</name>
			<visibility>0</visibility>
			<styleUrl>#waypoint</styleUrl>
			<Point>
				<coordinates>34.972286,29.60508000000001,0</coordinates>
			</Point>
		</Placemark>
		<Placemark>
			<name>OVD</name>
			<visibility>0</visibility>
			<styleUrl>#waypoint</styleUrl>
			<Point>
				<coordinates>34.940463,29.961063,0</coordinates>
			</Point>
		</Placemark>
	</Folder>
</Document>
</kml>
