<?xml version="1.0" encoding="UTF-8"?>
<kml xmlns="http://www.opengis.net/kml/2.2" xmlns:gx="http://www.google.com/kml/ext/2.2" xmlns:kml="http://www.opengis.net/kml/2.2" xmlns:atom="http://www.w3.org/2005/Atom">
<Document>
	<name>vfr_waypoints.kml</name>
	<StyleMap id="waypoint">
		<Pair>
			<key>normal</key>
			<styleUrl>#waypoint_n</styleUrl>
		</Pair>
		<Pair>
			<key>highlight</key>
			<styleUrl>#waypoint_h</styleUrl>
		</Pair>
	</StyleMap>
	<Style id="waypoint_h">
		<IconStyle>
			<scale>1.2</scale>
			<Icon>
				<href>http://maps.google.com/mapfiles/kml/pal4/icon61.png</href>
			</Icon>
		</IconStyle>
	</Style>
	<Style id="waypoint_n">
		<IconStyle>
			<Icon>
				<href>http://maps.google.com/mapfiles/kml/pal4/icon61.png</href>
			</Icon>
		</IconStyle>
	</Style>
	<Folder>
		<name>VFR Waypoints</name>
		<visibility>0</visibility>
		<Placemark>
			<name>EVLYM</name>
			<visibility>0</visibility>
			<styleUrl>#waypoint</styleUrl>
			<Point>
				<coordinates>35.151462,32.824494,0</coordinates>
			</Point>
		</Placemark>
		<Placemark>
			<name>OLGAH</name>
			<visibility>0</visibility>
			<styleUrl>#waypoint</styleUrl>
			<Point>
				<coordinates>34.865091,32.430484,0</coordinates>
			</Point>
		</Placemark>
		<Placemark>
			<name>OFKIM</name>
			<visibility>0</visibility>
			<styleUrl>#waypoint</styleUrl>
			<Point>
				<coordinates>34.618854,31.322136,0</coordinates>
			</Point>
		</Placemark>
		<Placemark>
			<name>URRIM</name>
			<visibility>0</visibility>
			<styleUrl>#waypoint</styleUrl>
			<Point>
				<coordinates>34.528986,31.307342,0</coordinates>
			</Point>
		</Placemark>
		<Placemark>
			<name>AHIUD</name>
			<visibility>0</visibility>
			<styleUrl>#waypoint</styleUrl>
			<Point>
				<coordinates>35.180747,32.911545,0</coordinates>
			</Point>
		</Placemark>
		<Placemark>
			<name>AYLON</name>
			<visibility>0</visibility>
			<styleUrl>#waypoint</styleUrl>
			<Point>
				<coordinates>34.943055,31.871788,0</coordinates>
			</Point>
		</Placemark>
		<Placemark>
			<name>ALUMT</name>
			<visibility>0</visibility>
			<styleUrl>#waypoint</styleUrl>
			<Point>
				<coordinates>35.545977,32.714695,0</coordinates>
			</Point>
		</Placemark>
		<Placemark>
			<name>ALLON</name>
			<visibility>0</visibility>
			<styleUrl>#waypoint</styleUrl>
			<Point>
				<coordinates>35.366361,32.041306,0</coordinates>
			</Point>
		</Placemark>
		<Placemark>
			<name>ALMOG</name>
			<visibility>0</visibility>
			<styleUrl>#waypoint</styleUrl>
			<Point>
				<coordinates>35.45735,31.789398,0</coordinates>
			</Point>
		</Placemark>
		<Placemark>
			<name>AMNON</name>
			<visibility>0</visibility>
			<styleUrl>#waypoint</styleUrl>
			<Point>
				<coordinates>35.565669,32.90484,0</coordinates>
			</Point>
		</Placemark>
		<Placemark>
			<name>OSNAT</name>
			<visibility>0</visibility>
			<styleUrl>#waypoint</styleUrl>
			<Point>
				<coordinates>34.523861,31.832427,0</coordinates>
			</Point>
		</Placemark>
		<Placemark>
			<name>AFFEK</name>
			<visibility>0</visibility>
			<styleUrl>#waypoint</styleUrl>
			<Point>
				<coordinates>35.127582,32.840833,0</coordinates>
			</Point>
		</Placemark>
		<Placemark>
			<name>ARGMN</name>
			<visibility>0</visibility>
			<styleUrl>#waypoint</styleUrl>
			<Point>
				<coordinates>35.532903,32.172363,0</coordinates>
			</Point>
		</Placemark>
		<Placemark>
			<name>ESHEL</name>
			<visibility>0</visibility>
			<styleUrl>#waypoint</styleUrl>
			<Point>
				<coordinates>34.697264,31.32989,0</coordinates>
			</Point>
		</Placemark>
		<Placemark>
			<name>BRORA</name>
			<visibility>0</visibility>
			<styleUrl>#waypoint</styleUrl>
			<Point>
				<coordinates>34.998346,29.708854,0</coordinates>
			</Point>
		</Placemark>
		<Placemark>
			<name>BMNUH</name>
			<visibility>0</visibility>
			<styleUrl>#waypoint</styleUrl>
			<Point>
				<coordinates>35.135392,30.302733,0</coordinates>
			</Point>
		</Placemark>
		<Placemark>
			<name>SHEVA</name>
			<visibility>0</visibility>
			<styleUrl>#waypoint</styleUrl>
			<Point>
				<coordinates>34.798266,31.261183,0</coordinates>
			</Point>
		</Placemark>
		<Placemark>
			<name>GOVRN</name>
			<visibility>0</visibility>
			<styleUrl>#waypoint</styleUrl>
			<Point>
				<coordinates>34.89206,31.606122,0</coordinates>
			</Point>
		</Placemark>
		<Placemark>
			<name>HNINA</name>
			<visibility>0</visibility>
			<styleUrl>#waypoint</styleUrl>
			<Point>
				<coordinates>35.207213,31.830833,0</coordinates>
			</Point>
		</Placemark>
		<Placemark>
			<name>BOVED</name>
			<visibility>0</visibility>
			<styleUrl>#waypoint</styleUrl>
			<Point>
				<coordinates>34.770517,31.919919,0</coordinates>
			</Point>
		</Placemark>
		<Placemark>
			<name>BKAMA</name>
			<visibility>0</visibility>
			<styleUrl>#waypoint</styleUrl>
			<Point>
				<coordinates>34.766036,31.441948,0</coordinates>
			</Point>
		</Placemark>
		<Placemark>
			<name>BSEMS</name>
			<visibility>0</visibility>
			<styleUrl>#waypoint</styleUrl>
			<Point>
				<coordinates>34.981034,31.755448,0</coordinates>
			</Point>
		</Placemark>
		<Placemark>
			<name>DEROR</name>
			<visibility>0</visibility>
			<styleUrl>#waypoint</styleUrl>
			<Point>
				<coordinates>34.892839,32.258986,0</coordinates>
			</Point>
		</Placemark>
		<Placemark>
			<name>BAZRA</name>
			<visibility>0</visibility>
			<styleUrl>#waypoint</styleUrl>
			<Point>
				<coordinates>34.883133,32.220532,0</coordinates>
			</Point>
		</Placemark>
		<Placemark>
			<name>BHAIL</name>
			<visibility>0</visibility>
			<styleUrl>#waypoint</styleUrl>
			<Point>
				<coordinates>34.630974,31.556158,0</coordinates>
			</Point>
		</Placemark>
		<Placemark>
			<name>GALIM</name>
			<visibility>0</visibility>
			<styleUrl>#waypoint</styleUrl>
			<Point>
				<coordinates>34.981395,32.841438,0</coordinates>
			</Point>
		</Placemark>
		<Placemark>
			<name>GVULT</name>
			<visibility>0</visibility>
			<styleUrl>#waypoint</styleUrl>
			<Point>
				<coordinates>34.45991,31.226546,0</coordinates>
			</Point>
		</Placemark>
		<Placemark>
			<name>GVARM</name>
			<visibility>0</visibility>
			<styleUrl>#waypoint</styleUrl>
			<Point>
				<coordinates>34.608523,31.5931,0</coordinates>
			</Point>
		</Placemark>
		<Placemark>
			<name>GILAM</name>
			<visibility>0</visibility>
			<styleUrl>#waypoint</styleUrl>
			<Point>
				<coordinates>35.12962,32.820496,0</coordinates>
			</Point>
		</Placemark>
		<Placemark>
			<name>GNYAM</name>
			<visibility>0</visibility>
			<styleUrl>#waypoint</styleUrl>
			<Point>
				<coordinates>34.895463,32.15151,0</coordinates>
			</Point>
		</Placemark>
		<Placemark>
			<name>DUGIT</name>
			<visibility>0</visibility>
			<styleUrl>#waypoint</styleUrl>
			<Point>
				<coordinates>35.051211,32.851228,0</coordinates>
			</Point>
		</Placemark>
		<Placemark>
			<name>DIMON</name>
			<visibility>0</visibility>
			<styleUrl>#waypoint</styleUrl>
			<Point>
				<coordinates>35.007054,31.068046,0</coordinates>
			</Point>
		</Placemark>
		<Placemark>
			<name>DEENA</name>
			<visibility>0</visibility>
			<styleUrl>#waypoint</styleUrl>
			<Point>
				<coordinates>34.640515,32.023712,0</coordinates>
			</Point>
		</Placemark>
		<Placemark>
			<name>DALYA</name>
			<visibility>0</visibility>
			<styleUrl>#waypoint</styleUrl>
			<Point>
				<coordinates>35.083494,32.596893,0</coordinates>
			</Point>
		</Placemark>
		<Placemark>
			<name>HODYA</name>
			<visibility>0</visibility>
			<styleUrl>#waypoint</styleUrl>
			<Point>
				<coordinates>34.650654,31.682796,0</coordinates>
			</Point>
		</Placemark>
		<Placemark>
			<name>ZOREA</name>
			<visibility>0</visibility>
			<styleUrl>#waypoint</styleUrl>
			<Point>
				<coordinates>35.119391,32.647111,0</coordinates>
			</Point>
		</Placemark>
		<Placemark>
			<name>MOVIL</name>
			<visibility>0</visibility>
			<styleUrl>#waypoint</styleUrl>
			<Point>
				<coordinates>35.233168,32.759654,0</coordinates>
			</Point>
		</Placemark>
		<Placemark>
			<name>BEREC</name>
			<visibility>0</visibility>
			<styleUrl>#waypoint</styleUrl>
			<Point>
				<coordinates>34.910156,29.793116,0</coordinates>
			</Point>
		</Placemark>
		<Placemark>
			<name>HRGVS</name>
			<visibility>0</visibility>
			<styleUrl>#waypoint</styleUrl>
			<Point>
				<coordinates>34.951361,30.622223,0</coordinates>
			</Point>
		</Placemark>
		<Placemark>
			<name>ZHRYA</name>
			<visibility>0</visibility>
			<styleUrl>#waypoint</styleUrl>
			<Point>
				<coordinates>34.945137,31.698695,0</coordinates>
			</Point>
		</Placemark>
		<Placemark>
			<name>HULAT</name>
			<visibility>0</visibility>
			<styleUrl>#waypoint</styleUrl>
			<Point>
				<coordinates>35.629708,33.042681,0</coordinates>
			</Point>
		</Placemark>
		<Placemark>
			<name>HOLOT</name>
			<visibility>0</visibility>
			<styleUrl>#waypoint</styleUrl>
			<Point>
				<coordinates>34.360862,30.992884,0</coordinates>
			</Point>
		</Placemark>
		<Placemark>
			<name>OVDAT</name>
			<visibility>0</visibility>
			<styleUrl>#waypoint</styleUrl>
			<Point>
				<coordinates>34.794681,30.802071,0</coordinates>
			</Point>
		</Placemark>
		<Placemark>
			<name>HAZVA</name>
			<visibility>0</visibility>
			<styleUrl>#waypoint</styleUrl>
			<Point>
				<coordinates>35.238618,30.7736,0</coordinates>
			</Point>
		</Placemark>
		<Placemark>
			<name>TIRAT</name>
			<visibility>0</visibility>
			<styleUrl>#waypoint</styleUrl>
			<Point>
				<coordinates>35.526313,32.424206,0</coordinates>
			</Point>
		</Placemark>
		<Placemark>
			<name>TLLIM</name>
			<visibility>0</visibility>
			<styleUrl>#waypoint</styleUrl>
			<Point>
				<coordinates>34.763797,30.991005,0</coordinates>
			</Point>
		</Placemark>
		<Placemark>
			<name>YAVNE</name>
			<visibility>0</visibility>
			<styleUrl>#waypoint</styleUrl>
			<Point>
				<coordinates>34.757157,31.871725,0</coordinates>
			</Point>
		</Placemark>
		<Placemark>
			<name>YAHEL</name>
			<visibility>0</visibility>
			<styleUrl>#waypoint</styleUrl>
			<Point>
				<coordinates>35.13377,30.083151,0</coordinates>
			</Point>
		</Placemark>
		<Placemark>
			<name>YASDD</name>
			<visibility>0</visibility>
			<styleUrl>#waypoint</styleUrl>
			<Point>
				<coordinates>34.4572,31.810947,0</coordinates>
			</Point>
		</Placemark>
		<Placemark>
			<name>YAHOL</name>
			<visibility>0</visibility>
			<styleUrl>#waypoint</styleUrl>
			<Point>
				<coordinates>34.460814,32.021127,0</coordinates>
			</Point>
		</Placemark>
		<Placemark>
			<name>YAPAL</name>
			<visibility>0</visibility>
			<styleUrl>#waypoint</styleUrl>
			<Point>
				<coordinates>34.458578,31.914129,0</coordinates>
			</Point>
		</Placemark>
		<Placemark>
			<name>YASFA</name>
			<visibility>0</visibility>
			<styleUrl>#waypoint</styleUrl>
			<Point>
				<coordinates>34.625173,32.21943,0</coordinates>
			</Point>
		</Placemark>
		<Placemark>
			<name>YRUHM</name>
			<visibility>0</visibility>
			<styleUrl>#waypoint</styleUrl>
			<Point>
				<coordinates>34.913207,30.989558,0</coordinates>
			</Point>
		</Placemark>
		<Placemark>
			<name>YATED</name>
			<visibility>0</visibility>
			<styleUrl>#waypoint</styleUrl>
			<Point>
				<coordinates>34.334967,31.204889,0</coordinates>
			</Point>
		</Placemark>
		<Placemark>
			<name>KOYAR</name>
			<visibility>0</visibility>
			<styleUrl>#waypoint</styleUrl>
			<Point>
				<coordinates>35.543067,32.597503,0</coordinates>
			</Point>
		</Placemark>
		<Placemark>
			<name>SHAHR</name>
			<visibility>0</visibility>
			<styleUrl>#waypoint</styleUrl>
			<Point>
				<coordinates>35.335238,31.95729,0</coordinates>
			</Point>
		</Placemark>
		<Placemark>
			<name>DUMUM</name>
			<visibility>0</visibility>
			<styleUrl>#waypoint</styleUrl>
			<Point>
				<coordinates>35.324392,31.802824,0</coordinates>
			</Point>
		</Placemark>
		<Placemark>
			<name>NAGID</name>
			<visibility>0</visibility>
			<styleUrl>#waypoint</styleUrl>
			<Point>
				<coordinates>34.756403,31.888654,0</coordinates>
			</Point>
		</Placemark>
		<Placemark>
			<name>HASID</name>
			<visibility>0</visibility>
			<styleUrl>#waypoint</styleUrl>
			<Point>
				<coordinates>35.077911,32.746521,0</coordinates>
			</Point>
		</Placemark>
		<Placemark>
			<name>HAROV</name>
			<visibility>0</visibility>
			<styleUrl>#waypoint</styleUrl>
			<Point>
				<coordinates>35.665606,32.757591,0</coordinates>
			</Point>
		</Placemark>
		<Placemark>
			<name>NAHEM</name>
			<visibility>0</visibility>
			<styleUrl>#waypoint</styleUrl>
			<Point>
				<coordinates>34.821232,31.74472700000001,0</coordinates>
			</Point>
		</Placemark>
		<Placemark>
			<name>TAVOR</name>
			<visibility>0</visibility>
			<styleUrl>#waypoint</styleUrl>
			<Point>
				<coordinates>35.420206,32.690725,0</coordinates>
			</Point>
		</Placemark>
		<Placemark>
			<name>DESHE</name>
			<visibility>0</visibility>
			<styleUrl>#waypoint</styleUrl>
			<Point>
				<coordinates>35.531954,32.869954,0</coordinates>
			</Point>
		</Placemark>
		<Placemark>
			<name>BASAN</name>
			<visibility>0</visibility>
			<styleUrl>#waypoint</styleUrl>
			<Point>
				<coordinates>35.637953,33.145314,0</coordinates>
			</Point>
		</Placemark>
		<Placemark>
			<name>LTRUN</name>
			<visibility>0</visibility>
			<styleUrl>#waypoint</styleUrl>
			<Point>
				<coordinates>34.98683,31.838773,0</coordinates>
			</Point>
		</Placemark>
		<Placemark>
			<name>LIAAD</name>
			<visibility>0</visibility>
			<styleUrl>#waypoint</styleUrl>
			<Point>
				<coordinates>34.513991,31.957587,0</coordinates>
			</Point>
		</Placemark>
		<Placemark>
			<name>NSHRM</name>
			<visibility>0</visibility>
			<styleUrl>#waypoint</styleUrl>
			<Point>
				<coordinates>34.892992,31.908566,0</coordinates>
			</Point>
		</Placemark>
		<Placemark>
			<name>MMORR</name>
			<visibility>0</visibility>
			<styleUrl>#waypoint</styleUrl>
			<Point>
				<coordinates>35.368961,31.255968,0</coordinates>
			</Point>
		</Placemark>
		<Placemark>
			<name>MORSA</name>
			<visibility>0</visibility>
			<styleUrl>#waypoint</styleUrl>
			<Point>
				<coordinates>34.854884,32.124377,0</coordinates>
			</Point>
		</Placemark>
		<Placemark>
			<name>MIZAN</name>
			<visibility>0</visibility>
			<styleUrl>#waypoint</styleUrl>
			<Point>
				<coordinates>34.570724,31.725636,0</coordinates>
			</Point>
		</Placemark>
		<Placemark>
			<name>ZGLNI</name>
			<visibility>0</visibility>
			<styleUrl>#waypoint</styleUrl>
			<Point>
				<coordinates>35.406013,32.773867,0</coordinates>
			</Point>
		</Placemark>
		<Placemark>
			<name>DAROM</name>
			<visibility>0</visibility>
			<styleUrl>#waypoint</styleUrl>
			<Point>
				<coordinates>34.941418,32.795937,0</coordinates>
			</Point>
		</Placemark>
		<Placemark>
			<name>HAREL</name>
			<visibility>0</visibility>
			<styleUrl>#waypoint</styleUrl>
			<Point>
				<coordinates>35.145746,31.798925,0</coordinates>
			</Point>
		</Placemark>
		<Placemark>
			<name>MRISN</name>
			<visibility>0</visibility>
			<styleUrl>#waypoint</styleUrl>
			<Point>
				<coordinates>34.792101,31.977848,0</coordinates>
			</Point>
		</Placemark>
		<Placemark>
			<name>MYTAR</name>
			<visibility>0</visibility>
			<styleUrl>#waypoint</styleUrl>
			<Point>
				<coordinates>34.939463,31.313945,0</coordinates>
			</Point>
		</Placemark>
		<Placemark>
			<name>MESIL</name>
			<visibility>0</visibility>
			<styleUrl>#waypoint</styleUrl>
			<Point>
				<coordinates>34.90254,32.110057,0</coordinates>
			</Point>
		</Placemark>
		<Placemark>
			<name>MESAR</name>
			<visibility>0</visibility>
			<styleUrl>#waypoint</styleUrl>
			<Point>
				<coordinates>34.944166,30.501915,0</coordinates>
			</Point>
		</Placemark>
		<Placemark>
			<name>SHALEM</name>
			<visibility>0</visibility>
			<styleUrl>#waypoint</styleUrl>
			<Point>
				<coordinates>35.402164,31.559241,0</coordinates>
			</Point>
		</Placemark>
		<Placemark>
			<name>EMMEK</name>
			<visibility>0</visibility>
			<styleUrl>#waypoint</styleUrl>
			<Point>
				<coordinates>35.141213,32.615551,0</coordinates>
			</Point>
		</Placemark>
		<Placemark>
			<name>ZOHAR</name>
			<visibility>0</visibility>
			<styleUrl>#waypoint</styleUrl>
			<Point>
				<coordinates>35.373043,31.149724,0</coordinates>
			</Point>
		</Placemark>
		<Placemark>
			<name>NAHLA</name>
			<visibility>0</visibility>
			<styleUrl>#waypoint</styleUrl>
			<Point>
				<coordinates>34.807817,31.656983,0</coordinates>
			</Point>
		</Placemark>
		<Placemark>
			<name>NTAIM</name>
			<visibility>0</visibility>
			<styleUrl>#waypoint</styleUrl>
			<Point>
				<coordinates>34.780213,31.944124,0</coordinates>
			</Point>
		</Placemark>
		<Placemark>
			<name>BANIM</name>
			<visibility>0</visibility>
			<styleUrl>#waypoint</styleUrl>
			<Point>
				<coordinates>34.765455,31.67924100000001,0</coordinates>
			</Point>
		</Placemark>
		<Placemark>
			<name>NMASD</name>
			<visibility>0</visibility>
			<styleUrl>#waypoint</styleUrl>
			<Point>
				<coordinates>34.637706,31.833027,0</coordinates>
			</Point>
		</Placemark>
		<Placemark>
			<name>NOAAM</name>
			<visibility>0</visibility>
			<styleUrl>#waypoint</styleUrl>
			<Point>
				<coordinates>34.775744,31.572012,0</coordinates>
			</Point>
		</Placemark>
		<Placemark>
			<name>NAAMA</name>
			<visibility>0</visibility>
			<styleUrl>#waypoint</styleUrl>
			<Point>
				<coordinates>35.4623,31.90869500000001,0</coordinates>
			</Point>
		</Placemark>
		<Placemark>
			<name>SIRNI</name>
			<visibility>0</visibility>
			<styleUrl>#waypoint</styleUrl>
			<Point>
				<coordinates>34.832466,31.931391,0</coordinates>
			</Point>
		</Placemark>
		<Placemark>
			<name>NTVOT</name>
			<visibility>0</visibility>
			<styleUrl>#waypoint</styleUrl>
			<Point>
				<coordinates>34.598457,31.430196,0</coordinates>
			</Point>
		</Placemark>
		<Placemark>
			<name>SAMAR</name>
			<visibility>0</visibility>
			<styleUrl>#waypoint</styleUrl>
			<Point>
				<coordinates>35.02898,29.831082,0</coordinates>
			</Point>
		</Placemark>
		<Placemark>
			<name>SIGAL</name>
			<visibility>0</visibility>
			<styleUrl>#waypoint</styleUrl>
			<Point>
				<coordinates>34.293392,31.195095,0</coordinates>
			</Point>
		</Placemark>
		<Placemark>
			<name>SAADD</name>
			<visibility>0</visibility>
			<styleUrl>#waypoint</styleUrl>
			<Point>
				<coordinates>34.535179,31.463851,0</coordinates>
			</Point>
		</Placemark>
		<Placemark>
			<name>AZOOZ</name>
			<visibility>0</visibility>
			<styleUrl>#waypoint</styleUrl>
			<Point>
				<coordinates>34.469684,30.799309,0</coordinates>
			</Point>
		</Placemark>
		<Placemark>
			<name>ZUKIM</name>
			<visibility>0</visibility>
			<styleUrl>#waypoint</styleUrl>
			<Point>
				<coordinates>35.449173,31.715797,0</coordinates>
			</Point>
		</Placemark>
		<Placemark>
			<name>EIRON</name>
			<visibility>0</visibility>
			<styleUrl>#waypoint</styleUrl>
			<Point>
				<coordinates>35.023746,32.482353,0</coordinates>
			</Point>
		</Placemark>
		<Placemark>
			<name>AAKKO</name>
			<visibility>0</visibility>
			<styleUrl>#waypoint</styleUrl>
			<Point>
				<coordinates>35.096437,32.918924,0</coordinates>
			</Point>
		</Placemark>
		<Placemark>
			<name>AMIOZ</name>
			<visibility>0</visibility>
			<styleUrl>#waypoint</styleUrl>
			<Point>
				<coordinates>34.404629,31.256318,0</coordinates>
			</Point>
		</Placemark>
		<Placemark>
			<name>ATLIT</name>
			<visibility>0</visibility>
			<styleUrl>#waypoint</styleUrl>
			<Point>
				<coordinates>34.93282,32.730149,0</coordinates>
			</Point>
		</Placemark>
		<Placemark>
			<name>PELEG</name>
			<visibility>0</visibility>
			<styleUrl>#waypoint</styleUrl>
			<Point>
				<coordinates>34.837253,32.330536,0</coordinates>
			</Point>
		</Placemark>
		<Placemark>
			<name>PARDS</name>
			<visibility>0</visibility>
			<styleUrl>#waypoint</styleUrl>
			<Point>
				<coordinates>34.847598,32.102665,0</coordinates>
			</Point>
		</Placemark>
		<Placemark>
			<name>ZASHD</name>
			<visibility>0</visibility>
			<styleUrl>#waypoint</styleUrl>
			<Point>
				<coordinates>34.706594,31.825432,0</coordinates>
			</Point>
		</Placemark>
		<Placemark>
			<name>NEGEV</name>
			<visibility>0</visibility>
			<styleUrl>#waypoint</styleUrl>
			<Point>
				<coordinates>34.839355,31.064983,0</coordinates>
			</Point>
		</Placemark>
		<Placemark>
			<name>ARAVA</name>
			<visibility>0</visibility>
			<styleUrl>#waypoint</styleUrl>
			<Point>
				<coordinates>35.310066,30.988591,0</coordinates>
			</Point>
		</Placemark>
		<Placemark>
			<name>RUHOT</name>
			<visibility>0</visibility>
			<styleUrl>#waypoint</styleUrl>
			<Point>
				<coordinates>34.810718,30.660444,0</coordinates>
			</Point>
		</Placemark>
		<Placemark>
			<name>SHARO</name>
			<visibility>0</visibility>
			<styleUrl>#waypoint</styleUrl>
			<Point>
				<coordinates>34.904473,32.324643,0</coordinates>
			</Point>
		</Placemark>
		<Placemark>
			<name>HATRU</name>
			<visibility>0</visibility>
			<styleUrl>#waypoint</styleUrl>
			<Point>
				<coordinates>35.248709,31.218291,0</coordinates>
			</Point>
		</Placemark>
		<Placemark>
			<name>ZLHAV</name>
			<visibility>0</visibility>
			<styleUrl>#waypoint</styleUrl>
			<Point>
				<coordinates>34.794096,31.371571,0</coordinates>
			</Point>
		</Placemark>
		<Placemark>
			<name>ZMGID</name>
			<visibility>0</visibility>
			<styleUrl>#waypoint</styleUrl>
			<Point>
				<coordinates>35.190424,32.573138,0</coordinates>
			</Point>
		</Placemark>
		<Placemark>
			<name>ZMGEN</name>
			<visibility>0</visibility>
			<styleUrl>#waypoint</styleUrl>
			<Point>
				<coordinates>34.433702,31.293576,0</coordinates>
			</Point>
		</Placemark>
		<Placemark>
			<name>HADRA</name>
			<visibility>0</visibility>
			<styleUrl>#waypoint</styleUrl>
			<Point>
				<coordinates>34.91364,32.464466,0</coordinates>
			</Point>
		</Placemark>
		<Placemark>
			<name>AFULA</name>
			<visibility>0</visibility>
			<styleUrl>#waypoint</styleUrl>
			<Point>
				<coordinates>35.281623,32.603112,0</coordinates>
			</Point>
		</Placemark>
		<Placemark>
			<name>ARRAD</name>
			<visibility>0</visibility>
			<styleUrl>#waypoint</styleUrl>
			<Point>
				<coordinates>35.209825,31.252702,0</coordinates>
			</Point>
		</Placemark>
		<Placemark>
			<name>FRDIS</name>
			<visibility>0</visibility>
			<styleUrl>#waypoint</styleUrl>
			<Point>
				<coordinates>34.946697,32.592715,0</coordinates>
			</Point>
		</Placemark>
		<Placemark>
			<name>FAZEL</name>
			<visibility>0</visibility>
			<styleUrl>#waypoint</styleUrl>
			<Point>
				<coordinates>35.46195,32.047437,0</coordinates>
			</Point>
		</Placemark>
		<Placemark>
			<name>ZZHOR</name>
			<visibility>0</visibility>
			<styleUrl>#waypoint</styleUrl>
			<Point>
				<coordinates>35.020053,30.275378,0</coordinates>
			</Point>
		</Placemark>
		<Placemark>
			<name>ZAFIT</name>
			<visibility>0</visibility>
			<styleUrl>#waypoint</styleUrl>
			<Point>
				<coordinates>35.200524,31.042752,0</coordinates>
			</Point>
		</Placemark>
		<Placemark>
			<name>KTORA</name>
			<visibility>0</visibility>
			<styleUrl>#waypoint</styleUrl>
			<Point>
				<coordinates>35.076326,29.989777,0</coordinates>
			</Point>
		</Placemark>
		<Placemark>
			<name>SOKET</name>
			<visibility>0</visibility>
			<styleUrl>#waypoint</styleUrl>
			<Point>
				<coordinates>34.901689,31.306782,0</coordinates>
			</Point>
		</Placemark>
		<Placemark>
			<name>ZOFAR</name>
			<visibility>0</visibility>
			<styleUrl>#waypoint</styleUrl>
			<Point>
				<coordinates>35.187769,30.55802200000001,0</coordinates>
			</Point>
		</Placemark>
		<Placemark>
			<name>ZALMN</name>
			<visibility>0</visibility>
			<styleUrl>#waypoint</styleUrl>
			<Point>
				<coordinates>35.411391,32.852768,0</coordinates>
			</Point>
		</Placemark>
		<Placemark>
			<name>KNTRY</name>
			<visibility>0</visibility>
			<styleUrl>#waypoint</styleUrl>
			<Point>
				<coordinates>34.800941,32.141501,0</coordinates>
			</Point>
		</Placemark>
		<Placemark>
			<name>KIRYON</name>
			<visibility>0</visibility>
			<styleUrl>#waypoint</styleUrl>
			<Point>
				<coordinates>35.088388,32.84309,0</coordinates>
			</Point>
		</Placemark>
		<Placemark>
			<name>REVAH</name>
			<visibility>0</visibility>
			<styleUrl>#waypoint</styleUrl>
			<Point>
				<coordinates>34.730711,31.644638,0</coordinates>
			</Point>
		</Placemark>
		<Placemark>
			<name>ROKCH</name>
			<visibility>0</visibility>
			<styleUrl>#waypoint</styleUrl>
			<Point>
				<coordinates>34.802911,32.101936,0</coordinates>
			</Point>
		</Placemark>
		<Placemark>
			<name>HOVAV</name>
			<visibility>0</visibility>
			<styleUrl>#waypoint</styleUrl>
			<Point>
				<coordinates>34.805381,31.135534,0</coordinates>
			</Point>
		</Placemark>
		<Placemark>
			<name>REIMM</name>
			<visibility>0</visibility>
			<styleUrl>#waypoint</styleUrl>
			<Point>
				<coordinates>34.453102,31.387287,0</coordinates>
			</Point>
		</Placemark>
		<Placemark>
			<name>ZRANA</name>
			<visibility>0</visibility>
			<styleUrl>#waypoint</styleUrl>
			<Point>
				<coordinates>34.887765,32.177932,0</coordinates>
			</Point>
		</Placemark>
		<Placemark>
			<name>RANNO</name>
			<visibility>0</visibility>
			<styleUrl>#waypoint</styleUrl>
			<Point>
				<coordinates>34.888603,32.193154,0</coordinates>
			</Point>
		</Placemark>
		<Placemark>
			<name>SZION</name>
			<visibility>0</visibility>
			<styleUrl>#waypoint</styleUrl>
			<Point>
				<coordinates>35.093463,32.978774,0</coordinates>
			</Point>
		</Placemark>
		<Placemark>
			<name>SEGEV</name>
			<visibility>0</visibility>
			<styleUrl>#waypoint</styleUrl>
			<Point>
				<coordinates>35.261614,32.86058,0</coordinates>
			</Point>
		</Placemark>
		<Placemark>
			<name>BOKER</name>
			<visibility>0</visibility>
			<styleUrl>#waypoint</styleUrl>
			<Point>
				<coordinates>34.786866,30.874605,0</coordinates>
			</Point>
		</Placemark>
		<Placemark>
			<name>SDROT</name>
			<visibility>0</visibility>
			<styleUrl>#waypoint</styleUrl>
			<Point>
				<coordinates>34.587254,31.507336,0</coordinates>
			</Point>
		</Placemark>
		<Placemark>
			<name>SOVAL</name>
			<visibility>0</visibility>
			<styleUrl>#waypoint</styleUrl>
			<Point>
				<coordinates>34.747462,31.411115,0</coordinates>
			</Point>
		</Placemark>
		<Placemark>
			<name>SORES</name>
			<visibility>0</visibility>
			<styleUrl>#waypoint</styleUrl>
			<Point>
				<coordinates>35.0738,31.799682,0</coordinates>
			</Point>
		</Placemark>
		<Placemark>
			<name>SIZFN</name>
			<visibility>0</visibility>
			<styleUrl>#waypoint</styleUrl>
			<Point>
				<coordinates>35.015646,30.047971,0</coordinates>
			</Point>
		</Placemark>
		<Placemark>
			<name>SHRUT</name>
			<visibility>0</visibility>
			<styleUrl>#waypoint</styleUrl>
			<Point>
				<coordinates>35.003634,29.907815,0</coordinates>
			</Point>
		</Placemark>
		<Placemark>
			<name>SITIM</name>
			<visibility>0</visibility>
			<styleUrl>#waypoint</styleUrl>
			<Point>
				<coordinates>35.014963,30.175132,0</coordinates>
			</Point>
		</Placemark>
		<Placemark>
			<name>SMRAT</name>
			<visibility>0</visibility>
			<styleUrl>#waypoint</styleUrl>
			<Point>
				<coordinates>35.09055,32.951412,0</coordinates>
			</Point>
		</Placemark>
		<Placemark>
			<name>SHARG</name>
			<visibility>0</visibility>
			<styleUrl>#waypoint</styleUrl>
			<Point>
				<coordinates>35.020742,31.82018,0</coordinates>
			</Point>
		</Placemark>
		<Placemark>
			<name>SFAIM</name>
			<visibility>0</visibility>
			<styleUrl>#waypoint</styleUrl>
			<Point>
				<coordinates>34.810421,32.220298,0</coordinates>
			</Point>
		</Placemark>
		<Placemark>
			<name>LLRM</name>
			<visibility>0</visibility>
			<styleUrl>#waypoint</styleUrl>
			<Point>
				<coordinates>34.667814,30.775213,0</coordinates>
			</Point>
		</Placemark>
		<Placemark>
			<name>ARSAF</name>
			<visibility>0</visibility>
			<styleUrl>#waypoint</styleUrl>
			<Point>
				<coordinates>34.806954,32.195554,0</coordinates>
			</Point>
		</Placemark>
		<Placemark>
			<name>ASKLN</name>
			<visibility>0</visibility>
			<styleUrl>#waypoint</styleUrl>
			<Point>
				<coordinates>34.538886,31.666216,0</coordinates>
			</Point>
		</Placemark>
		<Placemark>
			<name>TYONA</name>
			<visibility>0</visibility>
			<styleUrl>#waypoint</styleUrl>
			<Point>
				<coordinates>34.727919,32.003439,0</coordinates>
			</Point>
		</Placemark>
		<Placemark>
			<name>TARAD</name>
			<visibility>0</visibility>
			<styleUrl>#waypoint</styleUrl>
			<Point>
				<coordinates>35.124218,31.277914,0</coordinates>
			</Point>
		</Placemark>
	</Folder>
</Document>
</kml>
